[{"OBJECT_NAME":"SAUDISAT 5B","OBJECT_ID":"2018-102C","EPOCH":"2026-03-09T22:59:17.457216","MEAN_MOTION":15.27248504,"ECCENTRICITY":0.00120577,"INCLINATION":97.3281,"RA_OF_ASC_NODE":135.3629,"ARG_OF_PERICENTER":124.0958,"MEAN_ANOMALY":236.1427,"EPHEMERIS_TYPE":0,"CLASSIFICATION_TYPE":"U","NORAD_CAT_ID":43833,"ELEMENT_SET_NO":999,"REV_AT_EPOCH":40064,"BSTAR":0.00024926623,"MEAN_MOTION_DOT":6.596e-5,"MEAN_MOTION_DDOT":0},{"OBJECT_NAME":"STARLINK-30363","OBJECT_ID":"2023-131N","EPOCH":"2026-03-09T22:00:01.999584","MEAN_MOTION":15.26650799,"ECCENTRICITY":0.00014125,"INCLINATION":43.0005,"RA_OF_ASC_NODE":156.2845,"ARG_OF_PERICENTER":285.7606,"MEAN_ANOMALY":160.1146,"EPHEMERIS_TYPE":0,"CLASSIFICATION_TYPE":"U","NORAD_CAT_ID":57744,"ELEMENT_SET_NO":999,"REV_AT_EPOCH":578,"BSTAR":0.001785891,"MEAN_MOTION_DOT":0.00047826,"MEAN_MOTION_DDOT":0}]
